OBJECT_NAME,OBJECT_ID,EPOCH,MEAN_MOTION,ECCENTRICITY,INCLINATION,RA_OF_ASC_NODE,ARG_OF_PERICENTER,MEAN_ANOMALY,EPHEMERIS_TYPE,CLASSIFICATION_TYPE,NORAD_CAT_ID,ELEMENT_SET_NO,REV_AT_EPOCH,BSTAR,MEAN_MOTION_DOT,MEAN_MOTION_DDOT
ALOS-2,2014-029A,2026-06-08T13:11:42.167040,14.79472067,.00016718,97.9210,256.8376,90.6305,269.5098,0,U,39766,999,65030,.20114351E-3,.1451E-4,0
KAZEOSAT 2,2014-033A,2026-06-09T14:50:21.406848,14.85459545,.00086687,97.5416,0.6303,355.2858,4.8275,0,U,40010,999,64783,.8990393E-5,.27E-6,0
HODOYOSHI-4,2014-033B,2026-06-09T13:41:21.729696,14.88108823,.00231503,97.5458,345.7610,334.6327,25.3752,0,U,40011,999,64767,.43129454E-4,.346E-5,0
DEIMOS-2,2014-033D,2026-06-09T14:43:19.864704,14.93709534,.00020303,97.5841,35.3679,59.7443,300.3978,0,U,40013,999,63659,.19596501E-3,.2019E-4,0
HODOYOSHI-3,2014-033F,2026-06-09T10:30:56.606688,14.85372587,.00333809,97.6412,323.7911,22.6574,337.6107,0,U,40015,999,64647,.11985724E-3,.989E-5,0
SPOT 7,2014-034A,2026-06-09T15:32:47.227776,14.60952489,.00011902,98.0628,223.3336,85.6722,274.4615,0,U,40053,999,63603,.10703159E-3,.479E-5,0
SKYSAT-B,2014-037D,2026-06-09T09:24:33.702336,14.88007514,.00044954,98.3834,118.9129,314.1335,45.9510,0,U,40072,999,64480,.14063774E-3,.1229E-4,0
WORLDVIEW-3 (WV-3),2014-048A,2026-06-09T11:39:48.389472,14.85009417,.00015769,97.8566,235.4251,37.6574,322.4751,0,U,40115,999,64076,.94469153E-4,.752E-5,0
GAOFEN-2,2014-049A,2026-06-09T14:36:36.222912,14.80891799,.00058817,98.0109,224.8232,257.1874,102.8681,0,U,40118,999,63811,.1127766E-3,.818E-5,0
YAOGAN-21,2014-053A,2026-06-09T14:57:30.947040,15.26265238,.00098564,97.1482,201.1843,114.9798,245.2467,0,U,40143,999,65380,.34502151E-3,.8888E-4,0
YAOGAN-22,2014-063A,2026-06-09T08:27:29.887200,13.15531008,.00061628,100.7714,311.4959,203.0918,156.9916,0,U,40275,999,55878,.75788179E-4,-.18E-6,0
ASNARO,2014-070A,2026-06-09T15:38:03.352416,15.19325717,.00048018,97.3450,236.9705,188.3901,171.7255,0,U,40298,999,64286,.40807278E-3,.8559E-4,0
YAOGAN-24,2014-072A,2026-06-09T15:01:37.733088,14.76214594,.00126597,98.1478,297.9009,290.5761,69.4090,0,U,40310,999,62260,.13416935E-3,.876E-5,0
CBERS 4,2014-079A,2026-06-09T15:34:16.391712,14.35507705,.00020046,98.3532,217.7169,70.5730,289.5672,0,U,40336,999,60287,.91080783E-4,.22E-5,0
YAOGAN-26,2014-088A,2026-06-09T15:08:57.394176,15.47041079,.00066086,97.0645,161.0184,84.1419,276.0585,0,U,40362,999,63653,.34886353E-3,.17579E-3,0
SMAP,2015-003A,2026-06-09T11:45:44.809344,14.63359858,.00012766,98.1276,167.6937,93.1257,267.0091,0,U,40376,999,60649,.87993924E-4,.408E-5,0
KOMPSAT-3A,2015-014A,2026-06-09T13:52:42.941856,15.53644888,.00558879,97.6885,151.3860,202.0956,157.7888,0,U,40536,999,62063,.32589703E-3,.22179E-3,0
SENTINEL-2A,2015-028A,2026-06-09T14:12:54.880704,14.30822666,.00010845,98.5679,235.5517,86.7312,273.3995,0,U,40697,999,57264,.13710005E-3,.316E-5,0
GAOFEN-8,2015-030A,2026-06-09T15:26:38.305824,15.45678737,.00081606,97.6914,353.5632,213.6462,146.4269,0,U,40701,999,61028,.41395737E-3,.19925E-3,0
CARBONITE 1 (CBNT-1),2015-032D,2026-06-09T15:05:06.770976,14.83562753,.00137052,97.6510,339.0121,324.8438,35.1871,0,U,40718,999,58822,.12520403E-3,.982E-5,0
YAOGAN-27,2015-040A,2026-06-09T15:42:32.263776,13.16067474,.00075068,100.1153,147.3642,229.3465,130.6997,0,U,40878,999,51667,-.9231123E-3,-.393E-5,0
GAOFEN-9 01,2015-047A,2026-06-09T15:21:34.423200,14.82869411,.00278254,97.6278,196.6775,161.8435,198.3780,0,U,40894,999,57907,.11636758E-3,.898E-5,0
YAOGAN-28,2015-064A,2026-06-09T15:46:57.196416,15.27323240,.00099471,97.3062,299.0741,210.4751,149.5912,0,U,41026,999,58953,.27479251E-3,.7291E-4,0
YAOGAN-29,2015-069A,2026-06-09T14:54:46.613376,14.83078163,.00028782,98.0033,189.2423,65.4433,294.7080,0,U,41038,999,56950,.38164144E-4,.257E-5,0
KENT RIDGE 1,2015-077B,2026-06-09T02:36:21.593664,15.23082353,.00082474,14.9807,326.0677,124.4283,235.6820,0,U,41167,999,57986,.11853903E-3,.3643E-4,0
GAOFEN-4,2015-083A,2026-06-08T14:20:42.251136,1.00273550,.00041656,0.3341,83.8441,111.8448,22.1741,0,U,41194,999,3844,0,-.319E-5,0
JASON-3,2016-002A,2026-06-09T13:06:42.491232,12.87627826,.00085867,66.0393,141.8992,273.0885,86.9151,0,U,41240,999,48626,.8029535E-4,-.42E-6,0
SENTINEL-3A,2016-011A,2026-06-09T12:03:16.903008,14.26737872,.00013527,98.6249,227.9960,104.3212,255.8119,0,U,41335,999,53696,.53071753E-4,.85E-6,0
ZIYUAN 3-02 (ZY 3-02),2016-033A,2026-06-09T15:01:49.073088,15.21408117,.00115343,97.3835,236.5451,319.9454,40.0931,0,U,41556,999,55683,.21859077E-3,.4844E-4,0
CARTOSAT-2C,2016-040A,2026-06-09T14:49:49.684224,15.19259008,.00099693,97.4490,220.6998,154.7197,205.4527,0,U,41599,999,55256,.17734709E-3,.3674E-4,0
