ALOS-2                  
1 39766U 14029A   26159.54979360  .00001451  00000+0  20114-3 0  9994
2 39766  97.9210 256.8376 0001671  90.6305 269.5098 14.79472067650306
KAZEOSAT 2              
1 40010U 14033A   26160.61830332  .00000027  00000+0  89904-5 0  9990
2 40010  97.5416   0.6303 0008668 355.2858   4.8275 14.85459545647839
HODOYOSHI-4             
1 40011U 14033B   26160.57039039  .00000346  00000+0  43129-4 0  9993
2 40011  97.5458 345.7610 0023150 334.6327  25.3752 14.88108823647678
DEIMOS-2                
1 40013U 14033D   26160.61342436  .00002019  00000+0  19597-3 0  9998
2 40013  97.5841  35.3679 0002030  59.7443 300.3978 14.93709534636598
HODOYOSHI-3             
1 40015U 14033F   26160.43815517  .00000989  00000+0  11986-3 0  9993
2 40015  97.6412 323.7911 0033380  22.6574 337.6107 14.85372587646474
SPOT 7                  
1 40053U 14034A   26160.64776884  .00000479  00000+0  10703-3 0  9992
2 40053  98.0628 223.3336 0001190  85.6722 274.4615 14.60952489636035
SKYSAT-B                
1 40072U 14037D   26160.39205674  .00001229  00000+0  14064-3 0  9990
2 40072  98.3834 118.9129 0004495 314.1335  45.9510 14.88007514644807
WORLDVIEW-3 (WV-3)      
1 40115U 14048A   26160.48597673  .00000752  00000+0  94469-4 0  9991
2 40115  97.8566 235.4251 0001576  37.6574 322.4751 14.85009417640763
GAOFEN-2                
1 40118U 14049A   26160.60875258  .00000818  00000+0  11278-3 0  9996
2 40118  98.0109 224.8232 0005881 257.1874 102.8681 14.80891799638113
YAOGAN-21               
1 40143U 14053A   26160.62327485  .00008888  00000+0  34502-3 0  9995
2 40143  97.1482 201.1843 0009856 114.9798 245.2467 15.26265238653803
YAOGAN-22               
1 40275U 14063A   26160.35242925 -.00000018  00000+0  75788-4 0  9997
2 40275 100.7714 311.4959 0006162 203.0918 156.9916 13.15531008558787
ASNARO                  
1 40298U 14070A   26160.65142769  .00008559  00000+0  40807-3 0  9998
2 40298  97.3450 236.9705 0004801 188.3901 171.7255 15.19325717642863
YAOGAN-24               
1 40310U 14072A   26160.62613117  .00000876  00000+0  13417-3 0  9993
2 40310  98.1478 297.9009 0012659 290.5761  69.4090 14.76214594622603
CBERS 4                 
1 40336U 14079A   26160.64880083  .00000220  00000+0  91081-4 0  9995
2 40336  98.3532 217.7169 0002004  70.5730 289.5672 14.35507705602878
YAOGAN-26               
1 40362U 14088A   26160.63121984  .00017579  00000+0  34886-3 0  9995
2 40362  97.0645 161.0184 0006608  84.1419 276.0585 15.47041079636530
SMAP                    
1 40376U 15003A   26160.49010196  .00000408  00000+0  87994-4 0  9996
2 40376  98.1276 167.6937 0001276  93.1257 267.0091 14.63359858606499
KOMPSAT-3A              
1 40536U 15014A   26160.57827479  .00022179  00000+0  32590-3 0  9995
2 40536  97.6885 151.3860 0055887 202.0956 157.7888 15.53644888620637
SENTINEL-2A             
1 40697U 15028A   26160.59230186  .00000316  00000+0  13710-3 0  9995
2 40697  98.5679 235.5517 0001084  86.7312 273.3995 14.30822666572640
GAOFEN-8                
1 40701U 15030A   26160.64349891  .00019925  00000+0  41396-3 0  9991
2 40701  97.6914 353.5632 0008160 213.6462 146.4269 15.45678737610288
CARBONITE 1 (CBNT-1)    
1 40718U 15032D   26160.62855059  .00000982  00000+0  12520-3 0  9997
2 40718  97.6510 339.0121 0013705 324.8438  35.1871 14.83562753588221
YAOGAN-27               
1 40878U 15040A   26160.65454009 -.00000393  00000+0 -92311-3 0  9990
2 40878 100.1153 147.3642 0007506 229.3465 130.6997 13.16067474516675
GAOFEN-9 01             
1 40894U 15047A   26160.63998175  .00000898  00000+0  11637-3 0  9990
2 40894  97.6278 196.6775 0027825 161.8435 198.3780 14.82869411579077
YAOGAN-28               
1 41026U 15064A   26160.65760644  .00007291  00000+0  27479-3 0  9992
2 41026  97.3062 299.0741 0009947 210.4751 149.5912 15.27323240589533
YAOGAN-29               
1 41038U 15069A   26160.62137284  .00000257  00000+0  38164-4 0  9994
2 41038  98.0033 189.2423 0002878  65.4433 294.7080 14.83078163569506
KENT RIDGE 1            
1 41167U 15077B   26160.10858326  .00003643  00000+0  11854-3 0  9994
2 41167  14.9807 326.0677 0008247 124.4283 235.6820 15.23082353579869
GAOFEN-4                
1 41194U 15083A   26159.59771124 -.00000319  00000+0  00000+0 0  9997
2 41194   0.3341  83.8441 0004165 111.8448  22.1741  1.00273550 38442
JASON-3                 
1 41240U 16002A   26160.54632513 -.00000042  00000+0  80295-4 0  9998
2 41240  66.0393 141.8992 0008586 273.0885  86.9151 12.87627826486269
SENTINEL-3A             
1 41335U 16011A   26160.50227897  .00000085  00000+0  53072-4 0  9993
2 41335  98.6249 227.9960 0001352 104.3212 255.8119 14.26737872536962
ZIYUAN 3-02 (ZY 3-02)   
1 41556U 16033A   26160.62626242  .00004844  00000+0  21859-3 0  9996
2 41556  97.3835 236.5451 0011534 319.9454  40.0931 15.21408117556837
CARTOSAT-2C             
1 41599U 16040A   26160.61793616  .00003674  00000+0  17735-3 0  9998
2 41599  97.4490 220.6998 0009969 154.7197 205.4527 15.19259008552564
